{"type":"FeatureCollection","features":[{"type":"Feature","geometry":{"type":"Polygon","coordinates":[[[114.17592346772906,22.447516755165328],[114.17596160096141,22.447551310311237],[114.17588473359017,22.447618991306012],[114.17584709028216,22.447583993833707],[114.17592346772906,22.447516755165328]]]},"properties":{"BuildingID":1109564572,"BuildingNameEN":"TAI PO PUBLIC SCH SUBSTATION","BuildingNameTC":"大埔公立學校變電站","BaseHeight":5.5999999999999996,"TopHeight":9,"Storeys":null,"BuildingCSUID":"3616734236T20050430","DateStamp":1362096000000}},{"type":"Feature","geometry":{"type":"Polygon","coordinates":[[[114.17592346772906,22.447516755165328],[114.17584709028216,22.447583993833707],[114.1758365179163,22.447593301184266],[114.17566312843198,22.447422777989374],[114.17573786201281,22.447357672930103],[114.17575811119833,22.447340032620495],[114.17593050978024,22.447510555709528],[114.17592346772906,22.447516755165328]]]},"properties":{"BuildingID":1106128696,"BuildingNameEN":"TAI PO PUBLIC SCHOOL","BuildingNameTC":"大埔公立學校","BaseHeight":null,"TopHeight":null,"Storeys":null,"BuildingCSUID":"3615834227T20080328","DateStamp":1286928000000}},{"type":"Feature","geometry":{"type":"Polygon","coordinates":[[[114.17574763940472,22.447236182349357],[114.17573219269985,22.447249800166215],[114.17573010380465,22.447275491788584],[114.17553669912303,22.447444432042897],[114.17547101217457,22.447380368659665],[114.17546383915183,22.447386723689103],[114.1754397092518,22.447363190213771],[114.17544688227441,22.447356835185388],[114.17539486366836,22.447306102370462],[114.17547399177022,22.447236180267218],[114.17562090072583,22.447106359659525],[114.17565514522224,22.447139989319115],[114.17567867435817,22.447163089387175],[114.17570966597701,22.447135368014525],[114.17562562745772,22.447052756374184],[114.17570022817124,22.446985455935039],[114.17575149979835,22.447035857050327],[114.17584163128788,22.447124458200978],[114.17580044012034,22.447161491826471],[114.17581637234717,22.447175606525242],[114.17574763940472,22.447236182349357]]]},"properties":{"BuildingID":1106128786,"BuildingNameEN":"Tai Po Baptist Public School","BuildingNameTC":"大埔浸信會公立學校","BaseHeight":5.5,"TopHeight":29.800000000000001,"Storeys":null,"BuildingCSUID":"3613034209T20050430","DateStamp":1286928000000}},{"type":"Feature","geometry":{"type":"Polygon","coordinates":[[[114.17527461306148,22.447328189735885],[114.17570433618687,22.447749129785532],[114.17548067838358,22.447945955781559],[114.17542920940056,22.447895971791031],[114.17541522956795,22.447906808210167],[114.17535809690854,22.44785088210951],[114.17537113442293,22.447837517160213],[114.17505391835083,22.447525692463422],[114.17527461306148,22.447328189735885]]]},"properties":{"BuildingID":1106128493,"BuildingNameEN":"Wang Fuk Court Carpark","BuildingNameTC":"宏福苑停車場","BaseHeight":4.5,"TopHeight":17.199999999999999,"Storeys":null,"BuildingCSUID":"3611734250T20050430","DateStamp":1362096000000}},{"type":"Feature","geometry":{"type":"Polygon","coordinates":[[[114.1757332657324,22.446694716314084],[114.1756378206626,22.446778839899238],[114.17561556189523,22.446757018274987],[114.17562775076873,22.446746275198397],[114.17561509238743,22.446733865454597],[114.17562436329773,22.446725694319372],[114.17561819367039,22.446719847235212],[114.17561858237109,22.446707448426352],[114.17559388733778,22.446707637877278],[114.1755934695192,22.446716821844614],[114.17558486630828,22.446724766138292],[114.1755925740638,22.44673238094677],[114.17553953788455,22.446778767255552],[114.17547423974766,22.446714256232003],[114.17552625430717,22.44666876340899],[114.17552689715197,22.446646363646632],[114.17551343207616,22.446633496586031],[114.17550151463487,22.446644272798142],[114.17547903003796,22.446622786814782],[114.17557370045265,22.446537182411827],[114.17559818900092,22.446560583395556],[114.17558593611784,22.446571663034639],[114.17559844866679,22.446583619812309],[114.17557567534858,22.446604212409817],[114.17558008601394,22.446609381656149],[114.17563589440563,22.446610417242585],[114.17564127479311,22.446605601161398],[114.17562108916997,22.446586093967614],[114.17567380805598,22.446540291266807],[114.17573961516916,22.44660388670717],[114.17568655440336,22.44665132971814],[114.17568655423582,22.446671607961413],[114.17569896149222,22.44668377161808],[114.17571100638065,22.446672894070641],[114.1757332657324,22.446694716314084]]]},"properties":{"BuildingID":1106129085,"BuildingNameEN":"Wang Kin House","BuildingNameTC":"宏建閣","BaseHeight":5.5999999999999996,"TopHeight":90.5,"Storeys":null,"BuildingCSUID":"3614434142T20050430","DateStamp":1709078400000}},{"type":"Feature","geometry":{"type":"Polygon","coordinates":[[[114.17527766537344,22.446798385761046],[114.1752545009588,22.446775587254212],[114.17526785156952,22.446763866127871],[114.17525480268829,22.446751023341871],[114.17526402339442,22.446742927992332],[114.17525938821858,22.446738535083263],[114.17525977695121,22.446726136275327],[114.17523508191414,22.446726325671335],[114.17523466407185,22.446735509637737],[114.17522606083936,22.446743453912287],[114.17523204693782,22.446749367834933],[114.17517901063223,22.44679575402516],[114.17511543429096,22.446732943760107],[114.17511494855663,22.446732463876643],[114.1751663763698,22.446686894946431],[114.17516637664548,22.44666390431636],[114.17515342560988,22.446651153904543],[114.17514033225109,22.44666264556049],[114.17511744504134,22.446640112802765],[114.1752142442905,22.446555155304257],[114.17523752902686,22.446578079432271],[114.17522446638091,22.446589544094397],[114.17523727985731,22.446602159132752],[114.17521526386321,22.446621481734262],[114.17521989455832,22.44662644473712],[114.17527538576404,22.44662765310725],[114.17528054787307,22.446622841731841],[114.17526155973042,22.446604510811504],[114.17531316679042,22.446558319547005],[114.17537855650201,22.446621445817826],[114.17532629067323,22.446668226694957],[114.17532629044844,22.446688955377155],[114.17533843343607,22.44670077075445],[114.17535021682716,22.446690306735963],[114.17537419514402,22.446713638214021],[114.17527766537344,22.446798385761046]]]},"properties":{"BuildingID":1106129084,"BuildingNameEN":"Wang Sun House","BuildingNameTC":"宏新閣","BaseHeight":5.5999999999999996,"TopHeight":90.5,"Storeys":null,"BuildingCSUID":"3610734143T20050430","DateStamp":1709078400000}},{"type":"Feature","geometry":{"type":"Polygon","coordinates":[[[114.17599013453382,22.446473579322955],[114.17589168099772,22.446558266274039],[114.17586854839013,22.446535028613589],[114.17588145602463,22.446523925838918],[114.17586870710183,22.446511119045134],[114.17584520537265,22.446511123236771],[114.17579292624731,22.446556681813131],[114.17572846745018,22.446492768170263],[114.1757811091308,22.44644689373153],[114.17580002698224,22.446465626084603],[114.17580496212383,22.446461612079869],[114.17580746045454,22.446411901437781],[114.17580111121079,22.446405555426676],[114.17578024040999,22.446424543625117],[114.17576735189981,22.44641230267046],[114.17575542303298,22.446423155479795],[114.17573226743656,22.446401163369682],[114.17582788824355,22.446314168312618],[114.17585260499493,22.44633764312891],[114.17583950161672,22.446349564420597],[114.1758519377132,22.446361375607559],[114.1758763218094,22.446361546610984],[114.17592713311623,22.446317463935525],[114.17599164253149,22.446382354505452],[114.17594034818775,22.446428698513991],[114.17593513137795,22.446424147136437],[114.17592556226248,22.446432247399091],[114.17591443883792,22.446431642295408],[114.17591463298152,22.446454597708495],[114.17592427974975,22.44645681925493],[114.17592814466242,22.446459578441434],[114.17594054614203,22.446448911017214],[114.17595267244903,22.446461092352827],[114.17596615713138,22.446449493170437],[114.17599013453382,22.446473579322955]]]},"properties":{"BuildingID":1106129185,"BuildingNameEN":"Wang Tai House","BuildingNameTC":"宏泰閣","BaseHeight":5.5999999999999996,"TopHeight":90.299999999999997,"Storeys":null,"BuildingCSUID":"3616834118T20050430","DateStamp":1709078400000}},{"type":"Feature","geometry":{"type":"Polygon","coordinates":[[[114.17502265281755,22.447018541916492],[114.17500149417937,22.446999415178531],[114.17501302580308,22.446989689511998],[114.1749978514259,22.446976261056658],[114.17497338950923,22.446975755070447],[114.17492358102912,22.447018324040425],[114.17485997713106,22.44695412650832],[114.1749121899574,22.446909428205625],[114.1749309700928,22.446928383710002],[114.17493823559948,22.446922163890854],[114.17493986478183,22.446871686298469],[114.17493442562882,22.446866196351298],[114.17491280534392,22.446884705000873],[114.17490099734462,22.446872786829321],[114.17488646740109,22.446885225560955],[114.17486351647563,22.446862060364477],[114.17496126573603,22.44677837903464],[114.17498270379683,22.446800017240815],[114.17497032591783,22.446810613702208],[114.17498340926117,22.446823819084184],[114.17500769784561,22.446823819361558],[114.17505931427435,22.446779631495275],[114.17512452113225,22.446843552093561],[114.17507136371961,22.446889059132026],[114.17506547807349,22.446883118564777],[114.1750564134765,22.446890210530928],[114.17504529972808,22.446890065920581],[114.17504401707087,22.44691349090051],[114.17505562627697,22.44691362648598],[114.17506409748246,22.446922747336512],[114.17507438560149,22.446912804920949],[114.17508584894104,22.446924418207967],[114.17509785660165,22.446912859358555],[114.17512001584387,22.446933810246151],[114.17502265281755,22.447018541916492]]]},"properties":{"BuildingID":1910243686,"BuildingNameEN":"Wang Tao House","BuildingNameTC":"宏道閣","BaseHeight":5.5999999999999996,"TopHeight":90.799999999999997,"Storeys":null,"BuildingCSUID":"3607934169T20050430","DateStamp":1709078400000}},{"type":"Feature","geometry":{"type":"Polygon","coordinates":[[[114.17498343494375,22.447354260095185],[114.17496031459375,22.447331206167018],[114.17497353111673,22.447319753268719],[114.17496040488378,22.447306664740278],[114.17493527646364,22.447306688286261],[114.17488360538917,22.447351464082086],[114.17481893078597,22.447286975110774],[114.17487189210114,22.447241081290727],[114.17489166473341,22.44726079708477],[114.17489809078295,22.447255779662285],[114.17489809148445,22.447205365175694],[114.17489286437376,22.447201397402925],[114.17487151915581,22.447219894219629],[114.17485907316519,22.447207483878046],[114.17484599896761,22.447218813322639],[114.17482270943273,22.447195590593111],[114.17492093732947,22.447110470746111],[114.17494415400625,22.447133620855976],[114.17493013834675,22.447145766197799],[114.17494214503928,22.447157738371263],[114.17496650788993,22.44715872803209],[114.17501896091923,22.447113274482025],[114.17508328308453,22.447177411905542],[114.17503064401079,22.447223026757946],[114.17502449032247,22.447216890767447],[114.17502377794251,22.447216180514367],[114.17501644237122,22.447223099654568],[114.17500641607361,22.447223099541059],[114.17500641572265,22.447249813154084],[114.17501174003313,22.447250245140989],[114.17501794774249,22.447255952456967],[114.17503102813048,22.447245903245797],[114.17504323195192,22.447258072006775],[114.17505685882061,22.447246263396575],[114.17508066678047,22.447270002910599],[114.17498343494375,22.447354260095185]]]},"properties":{"BuildingID":1910243688,"BuildingNameEN":"WANG YAN HOUSE (BLK A)","BuildingNameTC":"宏仁閣(A座)","BaseHeight":5.5999999999999996,"TopHeight":90.5,"Storeys":null,"BuildingCSUID":"3606934204T20050430","DateStamp":1709078400000}},{"type":"Feature","geometry":{"type":"Polygon","coordinates":[[[114.17628540877422,22.44694555009135],[114.1762631887396,22.446923388199195],[114.1762764806985,22.44691187297407],[114.17626367535789,22.44689910115973],[114.17623919363083,22.446898851197997],[114.17618656368649,22.446944446471679],[114.17612222596628,22.446880276885917],[114.17617371188635,22.446835672810614],[114.1761785112727,22.446840459602406],[114.17618798587921,22.446831746879479],[114.17619742653636,22.446832492922979],[114.1761976910765,22.446810100923091],[114.17618878260083,22.446808791471803],[114.1761845278282,22.446803860466169],[114.1761737641621,22.446813185538613],[114.1761610420955,22.446800496796488],[114.1761481092958,22.446811701095328],[114.17612501186719,22.446788664038849],[114.17622228750248,22.446704390447817],[114.17624532256443,22.446727365270561],[114.17623170459039,22.446739162964743],[114.17624466457249,22.446752089112859],[114.17626958062282,22.446752343409919],[114.17632288030539,22.446706167813321],[114.17638652828846,22.446769649288342],[114.17633370822443,22.446815409415976],[114.17631467319137,22.446796424182892],[114.17630819358595,22.446802037762062],[114.17630760292933,22.446852034319956],[114.17631274884695,22.446857166794604],[114.17633428345201,22.446838510580179],[114.17634631763428,22.446850513262994],[114.17635911849413,22.446839423363766],[114.1763817985256,22.446862043991231],[114.17628540877422,22.44694555009135]]]},"properties":{"BuildingID":1910243754,"BuildingNameEN":"Wang Shing House","BuildingNameTC":"宏盛閣","BaseHeight":5.5,"TopHeight":90.900000000000006,"Storeys":null,"BuildingCSUID":"3620534159T20050430","DateStamp":1709078400000}},{"type":"Feature","geometry":{"type":"Polygon","coordinates":[[[114.17626234112898,22.447297655297294],[114.17623651916936,22.447274844280621],[114.17624783700496,22.447264703124578],[114.17624161953593,22.447257623227113],[114.17621145496044,22.447255464834562],[114.17616421148151,22.447297176302921],[114.17609964694483,22.447236184345538],[114.17615119411374,22.44719078848961],[114.17615815962344,22.447196703465423],[114.17616503775008,22.447192287603094],[114.17617961000931,22.447191718744776],[114.17618261201305,22.447166451551329],[114.17616852550489,22.447165638752701],[114.17616204574588,22.447158116358839],[114.17615050447695,22.447167146762407],[114.17613879815679,22.447155759311606],[114.17612629511069,22.447166180398913],[114.17610637008517,22.447146593258502],[114.17620140097833,22.447063043915872],[114.17622193803763,22.447083064508821],[114.1762116305633,22.447091869160232],[114.17622358946764,22.44710371715988],[114.17625149046761,22.44710281421861],[114.17629760692446,22.447063685429349],[114.17635913072415,22.447124966274306],[114.17630984721032,22.447168718662102],[114.17629240914651,22.447151632988113],[114.17628750313844,22.447155796009966],[114.17628567655818,22.447204018619303],[114.17629017450599,22.447209716850079],[114.17631322789464,22.447189579018101],[114.17632617772783,22.44720187853585],[114.17633574687122,22.44719422977284],[114.17635690571721,22.447214728964209],[114.17633244367403,22.447236185243991],[114.17626234112898,22.447297655297294]]]},"properties":{"BuildingID":1910243755,"BuildingNameEN":"Wang Chi House","BuildingNameTC":"宏志閣","BaseHeight":5.5,"TopHeight":91.200000000000003,"Storeys":null,"BuildingCSUID":"3619734202T20050430","DateStamp":1709078400000}},{"type":"Feature","geometry":{"type":"Polygon","coordinates":[[[114.1763059486115,22.446593084362778],[114.17628347410275,22.446570775094628],[114.17629683364179,22.446559145903237],[114.17628388902187,22.446546296517894],[114.17626040380381,22.446545841752098],[114.17620721772725,22.446592139059948],[114.17614189430634,22.446527295803591],[114.17619492989722,22.446481129457855],[114.17620342680112,22.446489563844448],[114.17621004978703,22.446483839737059],[114.17622066805207,22.44648353274269],[114.1762207167328,22.446459430463428],[114.17621083679653,22.446459042115801],[114.17620434638351,22.44645113972145],[114.1761950678512,22.446459216431705],[114.1761831347487,22.446447371047945],[114.17616968972042,22.446459074640682],[114.17614653347482,22.446436088517807],[114.17624190513769,22.446353069865182],[114.17626402317089,22.446375025325274],[114.17625199933698,22.446385491757937],[114.17626488467909,22.446398282357624],[114.17628967058609,22.446398337710235],[114.17633972324391,22.446354767922553],[114.17640505027043,22.44641961453182],[114.17635461474885,22.446463517561988],[114.17633405493333,22.446443108945754],[114.17632881320638,22.446447835739363],[114.17632766706278,22.446498988286063],[114.17633228972937,22.446504170155237],[114.1763545381224,22.446484803513776],[114.1763670668544,22.446497240020008],[114.1763804261851,22.446485611002217],[114.17640331376725,22.446508330240771],[114.1763059486115,22.446593084362778]]]},"properties":{"BuildingID":1910243979,"BuildingNameEN":"Wang Cheong House","BuildingNameTC":"宏昌閣","BaseHeight":5.5999999999999996,"TopHeight":90.900000000000006,"Storeys":null,"BuildingCSUID":"3620734120T20050430","DateStamp":1709251200000}}]}